[{"OBJECT_NAME":"STARLINK-2618","OBJECT_ID":"2021-044BH","EPOCH":"2026-03-09T06:58:05.889216","MEAN_MOTION":15.30196275,"ECCENTRICITY":0.00013813,"INCLINATION":53.1605,"RA_OF_ASC_NODE":77.1185,"ARG_OF_PERICENTER":92.9326,"MEAN_ANOMALY":267.1833,"EPHEMERIS_TYPE":0,"CLASSIFICATION_TYPE":"U","NORAD_CAT_ID":48693,"ELEMENT_SET_NO":999,"REV_AT_EPOCH":26430,"BSTAR":8.721502e-6,"MEAN_MOTION_DOT":-1.01e-6,"MEAN_MOTION_DDOT":0},{"OBJECT_NAME":"GENMAT-1","OBJECT_ID":"2023-174W","EPOCH":"2026-03-09T18:03:23.351040","MEAN_MOTION":15.32594666,"ECCENTRICITY":0.00074416,"INCLINATION":97.3728,"RA_OF_ASC_NODE":146.8236,"ARG_OF_PERICENTER":169.2515,"MEAN_ANOMALY":190.8888,"EPHEMERIS_TYPE":0,"CLASSIFICATION_TYPE":"U","NORAD_CAT_ID":58276,"ELEMENT_SET_NO":999,"REV_AT_EPOCH":12973,"BSTAR":0.00042157222,"MEAN_MOTION_DOT":0.0001321,"MEAN_MOTION_DDOT":0}]
